MALLIGYONG-1            
1 58400U 23179A   24197.86080630  .00006868  00000+0  30871-3 0  9992
2 58400  97.4005  84.2233 0003734  95.1586 265.0076 15.21444286 36087
